OBJECT_NAME,OBJECT_ID,EPOCH,MEAN_MOTION,ECCENTRICITY,INCLINATION,RA_OF_ASC_NODE,ARG_OF_PERICENTER,MEAN_ANOMALY,EPHEMERIS_TYPE,CLASSIFICATION_TYPE,NORAD_CAT_ID,ELEMENT_SET_NO,REV_AT_EPOCH,BSTAR,MEAN_MOTION_DOT,MEAN_MOTION_DDOT
CUBEBUG-2 (LO-74),2013-066AA,2026-07-17T06:30:55.280160,14.93975515,.00556156,97.8919,147.3840,288.3376,71.1800,0,U,39440,999,68148,.18925927E-3,.2015E-4,0
FUNCUBE-1 (AO-73),2013-066AE,2026-07-16T21:11:52.011168,15.09830753,.00379408,97.8292,169.9592,102.2043,258.3439,0,U,39444,999,68414,.25213319E-3,.4077E-4,0
UWE-3,2013-066AG,2026-07-16T19:46:31.675008,14.97205791,.00475708,97.8716,154.1042,218.9248,140.8545,0,U,39446,999,68201,.17839666E-3,.2047E-4,0
UNISAT-6,2014-033C,2026-07-17T06:04:05.500416,14.88371050,.00440226,97.7911,350.4435,330.8621,29.0140,0,U,40012,999,65063,.11749899E-3,.105E-4,0
DUCHIFAT-1,2014-033M,2026-07-16T16:46:11.491104,15.71313651,.00027866,98.0414,261.1627,236.8489,123.2505,0,U,40021,999,66037,.77546207E-3,.99153E-3,0
QB50P1,2014-033R,2026-07-17T00:01:44.720256,15.18681576,.00104593,98.0964,211.2472,119.5295,240.6982,0,U,40025,999,65755,.20646572E-3,.4208E-4,0
LILACSAT-2,2015-049K,2026-07-17T06:06:15.712992,15.52405502,.00085068,97.4621,236.2537,135.4502,224.7436,0,U,40908,999,60041,.1721448E-3,.10421E-3,0
FOX-1A (AO-85),2015-058D,2026-07-16T07:51:44.997696,14.91092003,.0132456,64.7725,188.4142,45.3781,315.8042,0,U,40967,999,11791,.15016E-3,.1582E-4,0
CAS-2T & KS-1Q,2016-066G,2026-07-17T03:49:43.427424,14.44772533,.03421437,98.3813,273.5527,38.8094,323.7141,0,U,41847,999,50912,.74643151E-4,.472E-5,0
RADFXSAT (FOX-1B),2017-073E,2026-07-17T02:28:24.588768,15.13077780,.01483139,97.4662,64.7083,224.8184,134.0992,0,U,43017,999,46991,.18979779E-3,.4326E-4,0
DIWATA-2B,2018-084H,2026-07-17T07:28:30.523296,15.00567673,.00127219,98.1210,35.8389,77.8123,282.4524,0,U,43678,999,42073,.83832718E-4,.994E-5,0
ES'HAIL 2,2018-090A,2026-07-17T06:33:09.635616,1.00272108,.00022896,0.0126,71.3477,87.3244,260.4860,0,U,43700,999,2797,0,.134E-5,0
FOX-1CLIFF (AO-95),2018-099N,2026-07-17T03:43:55.932672,15.27297628,.00074132,97.4364,258.3011,231.7430,128.3143,0,U,43770,999,41779,.21871528E-3,.5777E-4,0
ITASAT,2018-099AE,2026-07-17T02:55:20.774208,15.19395297,.0010969,97.4008,249.0402,242.8009,117.2109,0,U,43786,999,41745,.15348408E-3,.3185E-4,0
JY1SAT (JO-97),2018-099AX,2026-07-16T17:00:05.991552,15.34550143,.00069946,97.4110,260.6613,153.6431,206.5169,0,U,43803,999,41815,.30395708E-3,.10103E-3,0
UWE-4,2018-111E,2026-07-16T18:35:24.211392,15.47882980,.00064452,97.5845,127.5685,188.3610,171.7533,0,U,43880,999,41535,.4108923E-3,.21334E-3,0
TIANYAN 01,2019-093C,2026-07-17T06:25:21.896256,14.86560049,.00134044,97.7521,269.7646,354.5747,5.5321,0,U,44881,999,35588,-.2465245E-5,-.75E-6,0
RS-44 & BREEZE-KM R/B,2019-096E,2026-07-17T06:15:55.441440,12.79748896,.02185111,82.5243,319.7219,74.1844,288.3230,0,U,44909,999,30619,.31533461E-4,.21E-6,0
SALSAT,2020-068K,2026-07-16T23:14:24.421344,15.30186484,.00093844,97.8858,202.8562,186.4299,173.6821,0,U,46495,999,31991,.1366282E-3,.3909E-4,0
XW-3 (CAS-9),2021-131B,2026-07-17T07:42:21.667104,14.41382106,.00044502,98.4992,290.5482,25.0845,335.0559,0,U,50466,999,23945,.27460633E-4,.45E-6,0
GREENCUBE (IO-117),2022-080E,2026-07-17T05:19:51.691584,6.42583336,.00090719,70.1407,287.8015,282.9900,76.9746,0,U,53109,999,9399,0,-.3E-7,0
UMKA 1 (RS40S),2023-091G,2026-07-17T05:24:12.502080,15.21133696,.00128377,97.5031,256.8104,22.7170,337.4631,0,U,57172,999,16857,.13596105E-3,.2961E-4,0
CUBESX-HSE 3 (RS42S),2023-091N,2026-07-17T05:27:23.971392,15.31913775,.00094543,97.5073,264.2069,354.5415,5.5721,0,U,57178,999,16902,.2216746E-3,.6759E-4,0
MONITOR-3 (RS58S),2023-091Q,2026-07-17T04:31:38.250624,15.28394908,.00107678,97.5065,261.8641,2.6877,357.4418,0,U,57180,999,16887,.20056338E-3,.5476E-4,0
MONITOR-4 (RS57S),2023-091S,2026-07-17T05:33:20.470752,15.28482424,.00107692,97.5058,261.8802,2.7642,357.3655,0,U,57182,999,16888,.195978E-3,.5363E-4,0
MONITOR-2 (RS39S),2023-091U,2026-07-17T06:50:01.215456,15.19164858,.00111683,97.5053,256.3752,16.9779,343.1827,0,U,57184,999,16852,.11576238E-3,.2368E-4,0
SVYATOBOR 1 (RS60S),2023-091X,2026-07-17T06:30:39.647808,15.27082819,.00085404,97.5072,262.2622,357.1942,2.9248,0,U,57187,999,16890,.17661831E-3,.462E-4,0
VIZARD-METEO (RS38S),2023-091Z,2026-07-17T05:39:03.377664,15.36913044,.00054987,97.5074,268.3405,331.0314,29.0624,0,U,57189,999,16930,.24952664E-3,.8926E-4,0
POLYTECH-UNIVERSE 3 (RS46S),2023-091AB,2026-07-17T05:48:26.059392,15.19377467,.00158887,97.5029,255.8370,30.9908,329.2261,0,U,57191,999,16851,.12767454E-3,.2639E-4,0
UTMN 2 (RS27S),2023-091AP,2026-07-17T05:29:26.168640,15.32730262,.00065308,97.5069,265.8786,342.2949,17.8065,0,U,57203,999,16914,.20782198E-3,.6491E-4,0
